[Satellite]
VERSION=1.1
NAME=CFESAT
NICKNAME=CFESAT
TLE1=1 30777U 07006F   17185.88969938  .00001934  00000-0  64475-4 0  9996
TLE2=2 30777  35.4266 337.4904 0005847 157.7697 202.3282 15.31121886570724
